NORAD_CAT_ID,OBJECT_NAME,OBJECT_TYPE,EPOCH,MEAN_MOTION,ECCENTRICITY,INCLINATION,RA_OF_ASC_NODE,ARG_OF_PERICENTER,MEAN_ANOMALY,BSTAR,MEAN_MOTION_DOT,MEAN_MOTION_DDOT,TLE_LINE0,TLE_LINE1,TLE_LINE2,SEMIMAJOR_AXIS,PERIOD,APOGEE,PERIGEE,DECAYED
52459.0,STARLINK-3856,PAYLOAD,2023-01-23 14:59:22,15.08839501,0.0001495,53.2165,141.5603,85.3698,274.7465,0.00011407,1.528e-05,0.0,0 STARLINK-3856,1 52459U 22157A   23023.62457035  .00001528  00000-0  11407-3 0  9996,2 52459  53.2165 141.5603 0001495  85.3698 274.7465 15.08839501 40141,6917.882,95.438,540.781,538.7130000000001,0.0
52459.0,STARLINK-3856,PAYLOAD,2023-01-25 06:44:01,15.08834149,0.000129,53.2159,134.1252,95.6325,264.4814,7.6122e-05,9.24e-06,0.0,0 STARLINK-3856,1 52459U 22157A   23025.28057473  .00000924  00000-0  76122-4 0  9997,2 52459  53.2159 134.1252 0001290  95.6325 264.4814 15.08834149 40390,6917.898,95.438,540.656,538.871,0.0
52459.0,STARLINK-3856,PAYLOAD,2023-01-25 13:05:34,15.08838886,0.000137,53.2173,132.9365,100.9404,259.1742,0.00012136,1.644e-05,0.0,0 STARLINK-3856,1 52459U 22157A   23025.54553408  .00001644  00000-0  12136-3 0  9999,2 52459  53.2173 132.9365 0001370 100.9404 259.1742 15.08838886 40274,6917.884,95.438,540.697,538.8009999999999,0.0
52459.0,STARLINK-3856,PAYLOAD,2023-01-25 14:40:57,15.08842158,0.0001308,53.2162,132.638,96.4351,263.6791,0.00021456,3.129e-05,0.0,0 STARLINK-3856,1 52459U 22157A   23025.61177305  .00003129  00000-0  21456-3 0  9990,2 52459  53.2162 132.6380 0001308  96.4351 263.6791 15.08842158 40289,6917.874,95.437,540.644,538.8340000000001,0.0
52459.0,STARLINK-3856,PAYLOAD,2023-01-26 12:56:21,15.08845553,0.0001398,53.2164,128.4763,87.3423,272.7729,0.00025601,3.789e-05,0.0,0 STARLINK-3856,1 52459U 22157A   23026.53913598  .00003789  00000-0  25601-3 0  9992,2 52459  53.2164 128.4763 0001398  87.3423 272.7729 15.08845553 40427,6917.863,95.437,540.696,538.761,0.0
52459.0,STARLINK-3856,PAYLOAD,2023-01-27 06:25:36,15.08837107,0.0001231999999999,53.2159,125.205,90.3647,269.7486,9.0834e-05,1.158e-05,0.0,0 STARLINK-3856,1 52459U 22157A   23027.26777784  .00001158  00000-0  90834-4 0  9997,2 52459  53.2159 125.2050 0001232  90.3647 269.7486 15.08837107 40695,6917.889,95.438,540.607,538.9019999999999,0.0
52459.0,STARLINK-3856,PAYLOAD,2023-01-27 12:47:08,15.08843896,0.0001097,53.2166,124.015,103.0289,257.0825,0.00017703,2.531e-05,0.0,0 STARLINK-3856,1 52459U 22157A   23027.53273447  .00002531  00000-0  17703-3 0  9993,2 52459  53.2166 124.0150 0001097 103.0289 257.0825 15.08843896 40570,6917.868,95.437,540.492,538.975,0.0
52459.0,STARLINK-3856,PAYLOAD,2023-01-28 12:37:55,15.08841294,0.0001115,53.2164,119.5547,88.3067,271.8053,6.7355e-05,7.84e-06,0.0,0 STARLINK-3856,1 52459U 22157A   23028.52633786  .00000784  00000-0  67355-4 0  9996,2 52459  53.2164 119.5547 0001115  88.3067 271.8053 15.08841294 40888,6917.876,95.437,540.513,538.97,0.0
52459.0,STARLINK-3856,PAYLOAD,2023-01-28 15:48:41,15.08843845,0.0001099,53.2162,118.9593,91.7787,268.3331,9.1887e-05,1.175e-05,0.0,0 STARLINK-3856,1 52459U 22157A   23028.65881594  .00001175  00000-0  91887-4 0  9994,2 52459  53.2162 118.9593 0001099  91.7787 268.3331 15.08843845 40747,6917.869,95.437,540.494,538.973,0.0
52459.0,STARLINK-3856,PAYLOAD,2023-01-29 06:07:10,15.08833947,0.0001046,53.2162,116.2839,84.3704,275.7407,6.7821e-05,7.92e-06,0.0,0 STARLINK-3856,1 52459U 22157A   23029.25498229  .00000792  00000-0  67821-4 0  9995,2 52459  53.2162 116.2839 0001046  84.3704 275.7407 15.08833947 40995,6917.899,95.438,540.488,539.04,0.0
52459.0,STARLINK-3856,PAYLOAD,2023-01-29 22:01:01,15.08835375,0.0001113,53.2173,113.3107,85.9034,274.2085,2.4161e-05,9.7e-07,0.0,0 STARLINK-3856,1 52459U 22157A   23029.91738360  .00000097  00000-0  24161-4 0  9999,2 52459  53.2173 113.3107 0001113  85.9034 274.2085 15.08835375 40938,6917.895,95.438,540.529,538.99,0.0
52459.0,STARLINK-3856,PAYLOAD,2023-01-30 13:54:53,15.08839904,0.0001089,53.2178,110.3389,75.8484,284.2629,0.00012948,1.773e-05,0.0,0 STARLINK-3856,1 52459U 22157A   23030.57978117  .00001773  00000-0  12948-3 0  9990,2 52459  53.2178 110.3389 0001089  75.8484 284.2629 15.08839904 41197,6917.881,95.438,540.499,538.992,0.0
52459.0,STARLINK-3856,PAYLOAD,2023-01-30 21:51:48,15.08840822,0.00012,53.2189,108.8482,77.8537,282.2589,7.0254e-05,8.3e-06,0.0,0 STARLINK-3856,1 52459U 22157A   23030.91098166  .00000830  00000-0  70254-4 0  9993,2 52459  53.2189 108.8482 0001200  77.8537 282.2589 15.08840822 41083,6917.878,95.438,540.573,538.913,0.0
52459.0,STARLINK-3856,PAYLOAD,2023-01-31 13:45:39,15.0884955,0.0001102,53.2173,105.876,94.8505,265.2613,0.0001842,2.646e-05,0.0,0 STARLINK-3856,1 52459U 22157A   23031.57337390  .00002646  00000-0  18420-3 0  9994,2 52459  53.2173 105.8760 0001102  94.8505 265.2613 15.08849550 41184,6917.851,95.437,540.479,538.954,0.0
52459.0,STARLINK-3856,PAYLOAD,2023-01-31 21:42:35,15.08841328,9.53e-05,53.2182,104.3896,106.8849,253.2247,9.0353e-05,1.151e-05,0.0,0 STARLINK-3856,1 52459U 22157A   23031.90457983  .00001151  00000-0  90353-4 0  9998,2 52459  53.2182 104.3896 0000953 106.8849 253.2247 15.08841328 41237,6917.876,95.437,540.401,539.082,0.0
52459.0,STARLINK-3856,PAYLOAD,2023-02-01 13:36:26,15.08845211,0.000118,53.2182,101.4154,101.3951,258.7174,6.4709e-05,7.42e-06,0.0,0 STARLINK-3856,1 52459U 22157A   23032.56697818  .00000742  00000-0  64709-4 0  9995,2 52459  53.2182 101.4154 0001180 101.3951 258.7174 15.08845211 41334,6917.864,95.437,540.546,538.913,0.0
52459.0,STARLINK-3856,PAYLOAD,2023-02-01 21:33:23,15.08838942,0.0001221,53.219,99.9275,86.9503,273.1629,3.0953e-05,2.05e-06,0.0,0 STARLINK-3856,1 52459U 22157A   23032.89818383  .00000205  00000-0  30953-4 0  9991,2 52459  53.2190  99.9275 0001221  86.9503 273.1629 15.08838942 41547,6917.884,95.438,540.593,538.904,0.0
52459.0,STARLINK-3856,PAYLOAD,2023-02-02 11:51:51,15.08839096,0.0001195,53.218,97.2529,91.8712,268.2417,1.4056e-05,-6.4e-07,0.0,0 STARLINK-3856,1 52459U 22157A   23033.49434562 -.00000064  00000-0  14056-4 0  9991,2 52459  53.2180  97.2529 0001195  91.8712 268.2417 15.08839096 41479,6917.883,95.438,540.575,538.921,0.0
52459.0,STARLINK-3856,PAYLOAD,2023-02-02 22:59:33,15.08835031,0.0001406,53.2185,95.169,93.8067,266.3086,4.149e-05,3.72e-06,0.0,0 STARLINK-3856,1 52459U 22157A   23033.95802851  .00000372  00000-0  41490-4 0  9995,2 52459  53.2185  95.1690 0001406  93.8067 266.3086 15.08835031 41702,6917.896,95.438,540.733,538.788,0.0
52459.0,STARLINK-3856,PAYLOAD,2023-02-03 13:18:01,15.0884487,0.0001382,53.2183,92.4924,94.4175,265.6975,7.0683e-05,8.37e-06,0.0,0 STARLINK-3856,1 52459U 22157A   23034.55418340  .00000837  00000-0  70683-4 0  9990,2 52459  53.2183  92.4924 0001382  94.4175 265.6975 15.08844870 41799,6917.866,95.437,540.687,538.774,0.0
52459.0,STARLINK-3856,PAYLOAD,2023-02-04 08:22:39,15.08843386,0.0001353,53.2161,88.9268,84.0548,276.0598,0.00026954,4.005e-05,0.0,0 STARLINK-3856,1 52459U 22157A   23035.34906665  .00004005  00000-0  26954-3 0  9992,2 52459  53.2161  88.9268 0001353  84.0548 276.0598 15.08843386 41915,6917.87,95.437,540.671,538.799,0.0
52459.0,STARLINK-3856,PAYLOAD,2023-02-04 11:33:25,15.08848779,0.0001489,53.217,88.3309,86.8539,273.2624,0.00026201,3.885e-05,0.0,0 STARLINK-3856,1 52459U 22157A   23035.48154371  .00003885  00000-0  26201-3 0  9996,2 52459  53.2170  88.3309 0001489  86.8539 273.2624 15.08848779 41779,6917.854,95.437,540.749,538.688,0.0
52459.0,STARLINK-3856,PAYLOAD,2023-02-05 12:59:36,15.0883712,0.0001028,53.2177,83.5732,97.2774,262.8335,-6.5396e-06,-3.92e-06,0.0,0 STARLINK-3856,1 52459U 22157A   23036.54138976 -.00000392  00000-0 -65396-5 0  9999,2 52459  53.2177  83.5732 0001028  97.2774 262.8335 15.08837120 42096,6917.889,95.438,540.465,539.043,0.0
52459.0,STARLINK-3856,PAYLOAD,2023-02-06 04:53:28,15.08831203,0.0001211,53.2172,80.5995,101.5017,258.6111,-5.7151e-05,-1.197e-05,0.0,0 STARLINK-3856,1 52459U 22157A   23037.20380174 -.00001197  00000-0 -57151-4 0  9995,2 52459  53.2172  80.5995 0001211 101.5017 258.6111 15.08831203 42194,6917.907,95.438,540.61,538.935,0.0
52459.0,STARLINK-3856,PAYLOAD,2023-02-06 09:39:37,15.08838843,0.0001176,53.2176,79.7077,108.1077,252.0043,-3.9318e-05,-9.13e-06,0.0,0 STARLINK-3856,1 52459U 22157A   23037.40251684 -.00000913  00000-0 -39318-4 0  9990,2 52459  53.2176  79.7077 0001176 108.1077 252.0043 15.08838843 42221,6917.884,95.438,540.562,538.935,0.0
52459.0,STARLINK-3856,PAYLOAD,2023-02-06 11:15:00,15.08839678,0.0001208,53.2175,79.4097,111.5591,248.553,-3.5079e-05,-8.46e-06,0.0,0 STARLINK-3856,1 52459U 22157A   23037.46875625 -.00000846  00000-0 -35079-4 0  9998,2 52459  53.2175  79.4097 0001208 111.5591 248.5530 15.08839678 42075,6917.881,95.438,540.582,538.911,0.0
52459.0,STARLINK-3856,PAYLOAD,2023-02-06 19:11:55,15.08847839,0.0001135,53.2177,77.9239,95.9674,264.1448,3.4739e-05,2.65e-06,0.0,0 STARLINK-3856,1 52459U 22157A   23037.79994946  .00000265  00000-0  34739-4 0  9997,2 52459  53.2177  77.9239 0001135  95.9674 264.1448 15.08847839 42287,6917.856,95.437,540.507,538.936,0.0
52459.0,STARLINK-3856,PAYLOAD,2023-02-07 12:41:09,15.08886721,0.0001035,53.2166,74.6533,98.1983,261.9127,0.0014299,0.00022571,0.0,0 STARLINK-3856,1 52459U 22157A   23038.52858464  .00022571  00000-0  14299-2 0  9994,2 52459  53.2166  74.6533 0001035  98.1983 261.9127 15.08886721 42397,6917.738,95.435,540.319,538.887,0.0
52459.0,STARLINK-3856,PAYLOAD,2023-02-08 07:45:47,15.08851919,0.0001264,53.2163,71.0849,85.5703,274.5433,0.0011571,0.00018181,0.0,0 STARLINK-3856,1 52459U 22157A   23039.32346552  .00018181  00000-0  11571-2 0  9995,2 52459  53.2163  71.0849 0001264  85.5703 274.5433 15.08851919 42514,6917.844,95.437,540.583,538.835,0.0
52459.0,STARLINK-3856,PAYLOAD,2023-02-08 10:56:33,15.08853655,0.0001417,53.2162,70.4893,87.4407,272.6747,0.00078914,0.00012298,0.0,0 STARLINK-3856,1 52459U 22157A   23039.45594467  .00012298  00000-0  78914-3 0  9997,2 52459  53.2162  70.4893 0001417  87.4407 272.6747 15.08853655 42377,6917.839,95.437,540.684,538.723,0.0
